LEMUR-2-ROUNDTRIPPER    
1 62711U 25009DG  26193.17602365  .00005299  00000+0  38583-3 0  9998
2 62711  97.7248 275.8230 0004375  70.1877 289.9820 15.04200239 81386
LEMUR-2-MYNAMEISJEFF    
1 62712U 25009DH  26193.17449261  .00005155  00000+0  37556-3 0  9993
2 62712  97.7300 276.2178 0003803 104.0635 256.1013 15.04192021 81385
LEMUR-2-LEIA-PHILIP     
1 63246U 25052AN  26193.12954350  .00000750  00000+0  69493-4 0  9991
2 63246  97.6813  84.6578 0005092 126.2803 233.8890 14.97388550 72409
LEMUR-2-LIA-MARTIN      
1 63248U 25052AQ  26193.12539187  .00003049  00000+0  26296-3 0  9997
2 63248  97.6876  85.1670 0005402  97.3721 262.8115 14.98014688 72413
LEMUR-2-DELOITTE-1      
1 63259U 25052BB  26192.70449057  .00002220  00000+0  19414-3 0  9992
2 63259  97.6886  85.0832 0002556  69.2852 290.8644 14.97765900 72366
LEMUR-2-EMERSONROSE     
1 63261U 25052BD  26193.18936416  .00002923  00000+0  24432-3 0  9994
2 63261  97.6886  86.1670 0002809  65.5633 294.5883 14.99273394 72480
LEMUR-2-MARACHE-FRAN    
1 63262U 25052BE  26193.14743459  .00001818  00000+0  14977-3 0  9999
2 63262  97.6853  86.4899 0004845 266.1769  93.8900 15.00303753 72501
LEMUR-2-THEFALCONER     
1 63264U 25052BG  26192.93489889  .00001533  00000+0  13628-3 0  9997
2 63264  97.6847  84.9044 0000474   3.9992 356.1234 14.97555399 72392
LEMUR-2-UNTITLED-SC     
1 63351U 25061A   26192.88052709  .00002354  00000+0  13423-3 0  9990
2 63351  97.5648 168.0663 0018864 174.3063 185.8386 15.13633127 71324
LEMUR-2-ESPERANZA       
1 63352U 25061B   26192.85609415  .00001811  00000+0  10385-3 0  9991
2 63352  97.5655 168.1412 0018479 173.5696 186.5776 15.13740291 71323
LEMUR-2-KREMPEL-BRO2    
1 63353U 25061C   26193.00817541  .00002405  00000+0  13500-3 0  9993
2 63353  97.5701 168.8574 0019659 165.9100 194.2684 15.14166225 71366
LEMUR-2-THERMORAPTOR    
1 63354U 25061D   26192.92282516  .00001965  00000+0  11070-3 0  9992
2 63354  97.5705 168.8529 0019427 165.0621 195.1189 15.14249085 71358
LEMUR-2-NEUROSPICY      
1 63355U 25061E   26192.82651893  .00002301  00000+0  12870-3 0  9994
2 63355  97.5633 168.3643 0017115 168.1718 191.9919 15.14366383 71349
LEMUR-2-TILLINFINITY    
1 63356U 25061F   26192.85228769  .00001969  00000+0  10880-3 0  9998
2 63356  97.5619 168.6977 0018721 156.9449 203.2627 15.14950710 71376
LEMUR-2-KREMPEL-BRO1    
1 63357U 25061G   26193.15920830  .00002253  00000+0  12460-3 0  9994
2 63357  97.5621 168.9121 0019342 157.2171 202.9923 15.14758909 71416
LEMUR-2-LANGER2SPACE    
1 63358U 25061H   26192.46392497  .00002222  00000+0  12413-3 0  9994
2 63358  97.5624 168.0248 0017035 167.8120 192.3528 15.14450351 71298
LEMUR-2-BALTO           
1 63395U 25052BH  26193.13189323  .00003012  00000+0  24475-3 0  9991
2 63395  97.6934  86.4594 0005269 340.2877  19.8142 15.00347181 72504
LEMUR-2-KRISH           
1 64561U 25135AK  26192.81705671  .00002656  00000+0  23930-3 0  9991
2 64561  97.7770 307.5283 0001627  96.8966 263.2441 14.96434298 57609
LEMUR-2-HUBBLE-4        
1 64565U 25135AP  26193.26061450  .00001116  00000+0  11088-3 0  9996
2 64565  97.7716 306.8753 0002440 170.3654 189.7613 14.93680043 57615
LEMUR-2-SEJONG-2        
1 64586U 25135BL  26193.30705601  .00002178  00000+0  19492-3 0  9993
2 64586  97.7703 308.1612 0003728 232.5990 127.4892 14.96898702 57701
LEMUR-2-HUBBLE-5        
1 64840U 25135BT  26193.27048714  .00001131  00000+0  11093-3 0  9994
2 64840  97.7737 307.5509 0004192 247.2369 112.8409 14.94208283 57651
LEMUR-2-KARENDARRELL    
1 64841U 25135BU  26193.26224952  .00004300  00000+0  34583-3 0  9994
2 64841  97.7708 309.4353 0012107 113.3209 246.9290 15.00473291 57770
LEMUR-2-LUCILLE-ROSE    
1 65403U 25135BV  26192.83555560  .00003816  00000+0  30738-3 0  9992
2 65403  97.7712 309.0456 0014466 199.4062 160.6612 15.00464612 52336
LEMUR-2-AFFIE-WAUWIE    
1 66295U 25248C   26192.44721467  .00012568  00000+0  45936-3 0  9995
2 66295  45.3896 343.4521 0008636 232.3245 127.6861 15.28146061 38300
OTTER SDM               
1 66678U 25276N   26193.20084489  .00003731  00000+0  17619-3 0  9991
2 66678  97.4210 266.2646 0004240 268.1515  91.9235 15.20034932 34216
LEMUR-2-STAS-GORBUK     
1 66686U 25276W   26192.76056604  .00003406  00000+0  16302-3 0  9995
2 66686  97.4242 265.8836 0003449 265.6939  94.3901 15.19636638 34146
LEMUR-2-TEODOR          
1 66768U 25276DG  26193.17777587  .00003081  00000+0  14078-3 0  9999
2 66768  97.4147 266.5619 0002271  90.4814 269.6682 15.21316837 34249
LEMUR-2-LAILA           
1 66776U 25276DQ  26193.14802543  .00003711  00000+0  16782-3 0  9990
2 66776  97.4171 266.6695 0002912  98.7962 261.3604 15.21543038 34245
LEMUR-2-CELIJO-SB-PK    
1 66781U 25276DW  26192.71667674  .00003423  00000+0  27784-3 0  9996
2 66781  97.5201 262.6848 0007170  72.7067 287.4941 15.00264436 26301
LEMUR-2-FINNIAN         
1 66782U 25276DX  26193.02114277  .00001766  00000+0  14434-3 0  9994
2 66782  97.5365 263.2359 0007652  11.2352 348.9042 15.00597128 23722
